[Satellite]
VERSION=1.1
NAME=RADUGA 8 [-]
NICKNAME=RADUGA 8 [-]
TLE1=1 12351U 81027A   17185.85206655 -.00000236  00000-0  00000-0 0  9991
TLE2=2 12351  13.2089 326.1385 0085627 177.3653 171.6485  1.00417138 89717
